{"type": "FeatureCollection", "features": [ {"type": "Feature", "properties": {"norad_id": 66593, "name": "STARLINK-36031", "group": "last-30-days", "lat": -39.631514020087174, "lon": -175.4912450851419, "alt_km": 341.57791375210763, "timestamp": "2025-12-03T13:52:08.346940+00:00", "meta": {"OBJECT_NAME": "STARLINK-36031", "OBJECT_ID": "2025-270F", "EPOCH": "2025-12-03T06:00:02.999808", "MEAN_MOTION": 15.7789312, "ECCENTRICITY": 0.00016785, "INCLINATION": 42.9988, "RA_OF_ASC_NODE": 249.2305, "ARG_OF_PERICENTER": 267.6137, "MEAN_ANOMALY": 319.2093, "EPHEMERIS_TYPE": 0, "CLASSIFICATION_TYPE": "U", "NORAD_CAT_ID": 66593, "ELEMENT_SET_NO": 999, "REV_AT_EPOCH": 287, "BSTAR": -0.010270014, "MEAN_MOTION_DOT": -0.01566716, "MEAN_MOTION_DDOT": 0}, "tle": {"line1": "1 66593U 25270F   25337.25003472 -.01566716  00000+0 -10270-1 0  9992", "line2": "2 66593  42.9988 249.2305 0001678 267.6137 319.2093 15.77893120  2877"}}, "geometry": {"type": "Point", "coordinates": [-175.4912450851419, -39.631514020087174]}}, {"type": "Feature", "properties": {"norad_id": 66594, "name": "STARLINK-36032", "group": "last-30-days", "lat": -38.9694523539904, "lon": -173.01043287450642, "alt_km": 341.93764281784297, "timestamp": "2025-12-03T13:52:08.346952+00:00", "meta": {"OBJECT_NAME": "STARLINK-36032", "OBJECT_ID": "2025-270G", "EPOCH": "2025-12-03T06:00:02.999808", "MEAN_MOTION": 15.77837595, "ECCENTRICITY": 0.00014373, "INCLINATION": 42.9989, "RA_OF_ASC_NODE": 249.2252, "ARG_OF_PERICENTER": 263.6076, "MEAN_ANOMALY": 325.3228, "EPHEMERIS_TYPE": 0, "CLASSIFICATION_TYPE": "U", "NORAD_CAT_ID": 66594, "ELEMENT_SET_NO": 999, "REV_AT_EPOCH": 261, "BSTAR": -0.010377136, "MEAN_MOTION_DOT": -0.01577291, "MEAN_MOTION_DDOT": 0}, "tle": {"line1": "1 66594U 25270G   25337.25003472 -.01577291  00000+0 -10377-1 0  9991", "line2": "2 66594  42.9989 249.2252 0001437 263.6076 325.3228 15.77837595  2615"}}, "geometry": {"type": "Point", "coordinates": [-173.01043287450642, -38.9694523539904]}}, {"type": "Feature", "properties": {"norad_id": 66595, "name": "STARLINK-35711", "group": "last-30-days", "lat": -38.262472781745984, "lon": -170.60078783519705, "alt_km": 341.9687677671909, "timestamp": "2025-12-03T13:52:08.346962+00:00", "meta": {"OBJECT_NAME": "STARLINK-35711", "OBJECT_ID": "2025-270H", "EPOCH": "2025-12-03T06:00:02.999808", "MEAN_MOTION": 15.77789156, "ECCENTRICITY": 0.0001549, "INCLINATION": 42.9988, "RA_OF_ASC_NODE": 249.2195, "ARG_OF_PERICENTER": 267.444, "MEAN_ANOMALY": 323.5656, "EPHEMERIS_TYPE": 0, "CLASSIFICATION_TYPE": "U", "NORAD_CAT_ID": 66595, "ELEMENT_SET_NO": 999, "REV_AT_EPOCH": 298, "BSTAR": -0.010455933, "MEAN_MOTION_DOT": -0.01584761, "MEAN_MOTION_DDOT": 0}, "tle": {"line1": "1 66595U 25270H   25337.25003472 -.01584761  00000+0 -10456-1 0  9990", "line2": "2 66595  42.9988 249.2195 0001549 267.4440 323.5656 15.77789156  2986"}}, "geometry": {"type": "Point", "coordinates": [-170.60078783519705, -38.262472781745984]}}, {"type": "Feature", "properties": {"norad_id": 66596, "name": "STARLINK-35811", "group": "last-30-days", "lat": -37.51778406927616, "lon": -168.27095117118847, "alt_km": 342.0918039030594, "timestamp": "2025-12-03T13:52:08.346973+00:00", "meta": {"OBJECT_NAME": "STARLINK-35811", "OBJECT_ID": "2025-270J", "EPOCH": "2025-12-03T06:00:02.999808", "MEAN_MOTION": 15.77755459, "ECCENTRICITY": 0.00014309, "INCLINATION": 42.9988, "RA_OF_ASC_NODE": 249.2144, "ARG_OF_PERICENTER": 273.8631, "MEAN_ANOMALY": 319.1852, "EPHEMERIS_TYPE": 0, "CLASSIFICATION_TYPE": "U", "NORAD_CAT_ID": 66596, "ELEMENT_SET_NO": 999, "REV_AT_EPOCH": 298, "BSTAR": -0.010571126, "MEAN_MOTION_DOT": -0.01597711, "MEAN_MOTION_DDOT": 0}, "tle": {"line1": "1 66596U 25270J   25337.25003472 -.01597711  00000+0 -10571-1 0  9998", "line2": "2 66596  42.9988 249.2144 0001430 273.8631 319.1852 15.77755459  2981"}}, "geometry": {"type": "Point", "coordinates": [-168.27095117118847, -37.51778406927616]}}, {"type": "Feature", "properties": {"norad_id": 66597, "name": "STARLINK-35820", "group": "last-30-days", "lat": -36.74372042448877, "lon": -166.03173544553843, "alt_km": 342.14564896165393, "timestamp": "2025-12-03T13:52:08.346985+00:00", "meta": {"OBJECT_NAME": "STARLINK-35820", "OBJECT_ID": "2025-270K", "EPOCH": "2025-12-03T06:00:02.999808", "MEAN_MOTION": 15.7775163, "ECCENTRICITY": 0.00014943, "INCLINATION": 42.9989, "RA_OF_ASC_NODE": 249.2097, "ARG_OF_PERICENTER": 267.1255, "MEAN_ANOMALY": 327.8852, "EPHEMERIS_TYPE": 0, "CLASSIFICATION_TYPE": "U", "NORAD_CAT_ID": 66597, "ELEMENT_SET_NO": 999, "REV_AT_EPOCH": 298, "BSTAR": -0.01071532, "MEAN_MOTION_DOT": -0.01648793, "MEAN_MOTION_DDOT": 0}, "tle": {"line1": "1 66597U 25270K   25337.25003472 -.01648793  00000+0 -10715-1 0  9996", "line2": "2 66597  42.9989 249.2097 0001494 267.1255 327.8852 15.77751630  2981"}}, "geometry": {"type": "Point", "coordinates": [-166.03173544553843, -36.74372042448877]}}, {"type": "Feature", "properties": {"norad_id": 66598, "name": "STARLINK-35981", "group": "last-30-days", "lat": -35.90919226122629, "lon": -163.79003578640686, "alt_km": 342.3696477296444, "timestamp": "2025-12-03T13:52:08.346995+00:00", "meta": {"OBJECT_NAME": "STARLINK-35981", "OBJECT_ID": "2025-270L", "EPOCH": "2025-12-03T06:00:02.999808", "MEAN_MOTION": 15.77707977, "ECCENTRICITY": 0.00014616, "INCLINATION": 42.9987, "RA_OF_ASC_NODE": 249.2042, "ARG_OF_PERICENTER": 259.509, "MEAN_ANOMALY": 337.5471, "EPHEMERIS_TYPE": 0, "CLASSIFICATION_TYPE": "U", "NORAD_CAT_ID": 66598, "ELEMENT_SET_NO": 999, "REV_AT_EPOCH": 271, "BSTAR": -0.010742181, "MEAN_MOTION_DOT": -0.0164954, "MEAN_MOTION_DDOT": 0}, "tle": {"line1": "1 66598U 25270L   25337.25003472 -.01649540  00000+0 -10742-1 0  9998", "line2": "2 66598  42.9987 249.2042 0001461 259.5090 337.5471 15.77707977  2717"}}, "geometry": {"type": "Point", "coordinates": [-163.79003578640686, -35.90919226122629]}}, {"type": "Feature", "properties": {"norad_id": 66599, "name": "STARLINK-35930", "group": "last-30-days", "lat": -35.06682469910911, "lon": -161.67517376133702, "alt_km": 342.2774271645976, "timestamp": "2025-12-03T13:52:08.347009+00:00", "meta": {"OBJECT_NAME": "STARLINK-35930", "OBJECT_ID": "2025-270M", "EPOCH": "2025-12-03T06:00:02.999808", "MEAN_MOTION": 15.77711652, "ECCENTRICITY": 0.00014685, "INCLINATION": 42.9989, "RA_OF_ASC_NODE": 249.1997, "ARG_OF_PERICENTER": 264.8932, "MEAN_ANOMALY": 334.0863, "EPHEMERIS_TYPE": 0, "CLASSIFICATION_TYPE": "U", "NORAD_CAT_ID": 66599, "ELEMENT_SET_NO": 999, "REV_AT_EPOCH": 287, "BSTAR": -0.010799872, "MEAN_MOTION_DOT": -0.01657651, "MEAN_MOTION_DDOT": 0}, "tle": {"line1": "1 66599U 25270M   25337.25003472 -.01657651  00000+0 -10800-1 0  9996", "line2": "2 66599  42.9989 249.1997 0001468 264.8932 334.0863 15.77711652  2878"}}, "geometry": {"type": "Point", "coordinates": [-161.67517376133702, -35.06682469910911]}}, {"type": "Feature", "properties": {"norad_id": 66600, "name": "STARLINK-35980", "group": "last-30-days", "lat": -34.1611543457248, "lon": -159.54265271877432, "alt_km": 342.31744757199795, "timestamp": "2025-12-03T13:52:08.347020+00:00", "meta": {"OBJECT_NAME": "STARLINK-35980", "OBJECT_ID": "2025-270N", "EPOCH": "2025-12-03T06:00:02.999808", "MEAN_MOTION": 15.77680537, "ECCENTRICITY": 0.00015918, "INCLINATION": 42.9991, "RA_OF_ASC_NODE": 249.1947, "ARG_OF_PERICENTER": 263.8166, "MEAN_ANOMALY": 337.1853, "EPHEMERIS_TYPE": 0, "CLASSIFICATION_TYPE": "U", "NORAD_CAT_ID": 66600, "ELEMENT_SET_NO": 999, "REV_AT_EPOCH": 277, "BSTAR": -0.01091155, "MEAN_MOTION_DOT": -0.01670845, "MEAN_MOTION_DDOT": 0}, "tle": {"line1": "1 66600U 25270N   25337.25003472 -.01670845  00000+0 -10912-1 0  9993", "line2": "2 66600  42.9991 249.1947 0001591 263.8166 337.1853 15.77680537  2773"}}, "geometry": {"type": "Point", "coordinates": [-159.54265271877432, -34.1611543457248]}}, {"type": "Feature", "properties": {"norad_id": 66601, "name": "STARLINK-35978", "group": "last-30-days", "lat": -33.24180280504451, "lon": -157.5058744072493, "alt_km": 342.1561299914101, "timestamp": "2025-12-03T13:52:08.347030+00:00", "meta": {"OBJECT_NAME": "STARLINK-35978", "OBJECT_ID": "2025-270P", "EPOCH": "2025-12-03T06:00:02.999808", "MEAN_MOTION": 15.77673057, "ECCENTRICITY": 0.00016018, "INCLINATION": 42.999, "RA_OF_ASC_NODE": 249.1896, "ARG_OF_PERICENTER": 276.0059, "MEAN_ANOMALY": 326.9453, "EPHEMERIS_TYPE": 0, "CLASSIFICATION_TYPE": "U", "NORAD_CAT_ID": 66601, "ELEMENT_SET_NO": 999, "REV_AT_EPOCH": 271, "BSTAR": -0.010961964, "MEAN_MOTION_DOT": -0.01677187, "MEAN_MOTION_DDOT": 0}, "tle": {"line1": "1 66601U 25270P   25337.25003472 -.01677187  00000+0 -10962-1 0  9995", "line2": "2 66601  42.9990 249.1896 0001601 276.0059 326.9453 15.77673057  2710"}}, "geometry": {"type": "Point", "coordinates": [-157.5058744072493, -33.24180280504451]}}, {"type": "Feature", "properties": {"norad_id": 66602, "name": "STARLINK-36050", "group": "last-30-days", "lat": -32.25392665577498, "lon": -155.4388827149332, "alt_km": 342.56025417842557, "timestamp": "2025-12-03T13:52:08.347041+00:00", "meta": {"OBJECT_NAME": "STARLINK-36050", "OBJECT_ID": "2025-270Q", "EPOCH": "2025-12-03T06:00:02.999808", "MEAN_MOTION": 15.77626662, "ECCENTRICITY": 0.00014424, "INCLINATION": 42.9989, "RA_OF_ASC_NODE": 249.1846, "ARG_OF_PERICENTER": 262.0587, "MEAN_ANOMALY": 342.9548, "EPHEMERIS_TYPE": 0, "CLASSIFICATION_TYPE": "U", "NORAD_CAT_ID": 66602, "ELEMENT_SET_NO": 999, "REV_AT_EPOCH": 277, "BSTAR": -0.011076164, "MEAN_MOTION_DOT": -0.01689383, "MEAN_MOTION_DDOT": 0}, "tle": {"line1": "1 66602U 25270Q   25337.25003472 -.01689383  00000+0 -11076-1 0  9994", "line2": "2 66602  42.9989 249.1846 0001442 262.0587 342.9548 15.77626662  2777"}}, "geometry": {"type": "Point", "coordinates": [-155.4388827149332, -32.25392665577498]}}]}